{
  "type": "FeatureCollection",
  "features": [
    {
      "type": "Feature",
      "properties": {
        "norad_id": 29770,
        "name": "FENGYUN 1C DEB",
        "group": "fengyun-1c-debris",
        "lat": 42.285483060337114,
        "lon": 67.73990601940152,
        "alt_km": 866.6272120338963,
        "timestamp": "2025-12-26T07:29:18.726774+00:00",
        "meta_object_name": "FENGYUN 1C DEB",
        "meta_object_id": "1999-025BL",
        "meta_epoch": "2025-12-25T11:18:29.282400",
        "meta_mean_motion": 14.20191602,
        "meta_eccentricity": 0.0063964,
        "meta_inclination": 98.8455,
        "meta_ra_of_asc_node": 75.0411,
        "meta_arg_of_pericenter": 234.8575,
        "meta_mean_anomaly": 191.4175,
        "meta_ephemeris_type": 0,
        "meta_classification_type": "U",
        "meta_norad_cat_id": 29770,
        "meta_element_set_no": 999,
        "meta_rev_at_epoch": 97267,
        "meta_bstar": 0.0015153,
        "meta_mean_motion_dot": 3.258e-05,
        "meta_mean_motion_ddot": 0,
        "tle_line1": "1 29770U 99025BL  25359.47117225  .00003258  00000+0  15153-2 0  9997",
        "tle_line2": "2 29770  98.8455  75.0411 0063964 234.8575 191.4175 14.20191602972671"
      },
      "geometry": {
        "type": "Point",
        "coordinates": [
          67.73990601940152,
          42.285483060337114
        ]
      }
    },
    {
      "type": "Feature",
      "properties": {
        "norad_id": 29772,
        "name": "FENGYUN 1C DEB",
        "group": "fengyun-1c-debris",
        "lat": -34.91527883306308,
        "lon": 22.549562798514447,
        "alt_km": 808.9220198641642,
        "timestamp": "2025-12-26T07:29:18.726785+00:00",
        "meta_object_name": "FENGYUN 1C DEB",
        "meta_object_id": "1999-025BN",
        "meta_epoch": "2025-12-24T13:39:37.897632",
        "meta_mean_motion": 14.03249705,
        "meta_eccentricity": 0.01369059,
        "meta_inclination": 98.3837,
        "meta_ra_of_asc_node": 206.8509,
        "meta_arg_of_pericenter": 257.2434,
        "meta_mean_anomaly": 159.5842,
        "meta_ephemeris_type": 0,
        "meta_classification_type": "U",
        "meta_norad_cat_id": 29772,
        "meta_element_set_no": 999,
        "meta_rev_at_epoch": 96421,
        "meta_bstar": 0.00095382365,
        "meta_mean_motion_dot": 1.576e-05,
        "meta_mean_motion_ddot": 0,
        "tle_line1": "1 29772U 99025BN  25358.56918863  .00001576  00000+0  95382-3 0  9999",
        "tle_line2": "2 29772  98.3837 206.8509 0136905 257.2434 159.5842 14.03249705964219"
      },
      "geometry": {
        "type": "Point",
        "coordinates": [
          22.549562798514447,
          -34.91527883306308
        ]
      }
    },
    {
      "type": "Feature",
      "properties": {
        "norad_id": 29773,
        "name": "FENGYUN 1C DEB",
        "group": "fengyun-1c-debris",
        "lat": 12.40815118088133,
        "lon": 152.30343820728785,
        "alt_km": 818.4261293002655,
        "timestamp": "2025-12-26T07:29:18.726795+00:00",
        "meta_object_name": "FENGYUN 1C DEB",
        "meta_object_id": "1999-025BP",
        "meta_epoch": "2025-12-25T16:22:28.427808",
        "meta_mean_motion": 14.27594494,
        "meta_eccentricity": 0.0046539,
        "meta_inclination": 98.9879,
        "meta_ra_of_asc_node": 153.6516,
        "meta_arg_of_pericenter": 252.724,
        "meta_mean_anomaly": 124.8259,
        "meta_ephemeris_type": 0,
        "meta_classification_type": "U",
        "meta_norad_cat_id": 29773,
        "meta_element_set_no": 999,
        "meta_rev_at_epoch": 98382,
        "meta_bstar": 0.00041046811,
        "meta_mean_motion_dot": 9.75e-06,
        "meta_mean_motion_ddot": 0,
        "tle_line1": "1 29773U 99025BP  25359.68227347  .00000975  00000+0  41047-3 0  9995",
        "tle_line2": "2 29773  98.9879 153.6516 0046539 252.7240 124.8259 14.27594494983826"
      },
      "geometry": {
        "type": "Point",
        "coordinates": [
          152.30343820728785,
          12.40815118088133
        ]
      }
    },
    {
      "type": "Feature",
      "properties": {
        "norad_id": 29774,
        "name": "FENGYUN 1C DEB",
        "group": "fengyun-1c-debris",
        "lat": 74.35961994187515,
        "lon": 155.87495150119594,
        "alt_km": 773.7413957115186,
        "timestamp": "2025-12-26T07:29:18.726806+00:00",
        "meta_object_name": "FENGYUN 1C DEB",
        "meta_object_id": "1999-025BQ",
        "meta_epoch": "2025-12-25T19:29:28.119264",
        "meta_mean_motion": 14.22743028,
        "meta_eccentricity": 0.00513409,
        "meta_inclination": 99.0782,
        "meta_ra_of_asc_node": 300.5336,
        "meta_arg_of_pericenter": 86.5172,
        "meta_mean_anomaly": 337.1167,
        "meta_ephemeris_type": 0,
        "meta_classification_type": "U",
        "meta_norad_cat_id": 29774,
        "meta_element_set_no": 999,
        "meta_rev_at_epoch": 98261,
        "meta_bstar": 0.00019561531,
        "meta_mean_motion_dot": 3.98e-06,
        "meta_mean_motion_ddot": 0,
        "tle_line1": "1 29774U 99025BQ  25359.81213101  .00000398  00000+0  19562-3 0  9990",
        "tle_line2": "2 29774  99.0782 300.5336 0051340  86.5172 337.1167 14.22743028982615"
      },
      "geometry": {
        "type": "Point",
        "coordinates": [
          155.87495150119594,
          74.35961994187515
        ]
      }
    },
    {
      "type": "Feature",
      "properties": {
        "norad_id": 29776,
        "name": "FENGYUN 1C DEB",
        "group": "fengyun-1c-debris",
        "lat": -20.38947525355824,
        "lon": 29.963203870863538,
        "alt_km": 877.2893068998856,
        "timestamp": "2025-12-26T07:29:18.726816+00:00",
        "meta_object_name": "FENGYUN 1C DEB",
        "meta_object_id": "1999-025BS",
        "meta_epoch": "2025-12-25T15:07:06.892896",
        "meta_mean_motion": 14.07782071,
        "meta_eccentricity": 0.0023057,
        "meta_inclination": 98.77,
        "meta_ra_of_asc_node": 26.0116,
        "meta_arg_of_pericenter": 233.1905,
        "meta_mean_anomaly": 251.1524,
        "meta_ephemeris_type": 0,
        "meta_classification_type": "U",
        "meta_norad_cat_id": 29776,
        "meta_element_set_no": 999,
        "meta_rev_at_epoch": 97261,
        "meta_bstar": 9.7865e-05,
        "meta_mean_motion_dot": 1.23e-06,
        "meta_mean_motion_ddot": 0,
        "tle_line1": "1 29776U 99025BS  25359.62994089  .00000123  00000+0  97865-4 0  9991",
        "tle_line2": "2 29776  98.7700  26.0116 0023057 233.1905 251.1524 14.07782071972612"
      },
      "geometry": {
        "type": "Point",
        "coordinates": [
          29.963203870863538,
          -20.38947525355824
        ]
      }
    },
    {
      "type": "Feature",
      "properties": {
        "norad_id": 29777,
        "name": "FENGYUN 1C DEB",
        "group": "fengyun-1c-debris",
        "lat": -18.789817776616232,
        "lon": 60.379867929196195,
        "alt_km": 992.7655652717503,
        "timestamp": "2025-12-26T07:29:18.726827+00:00",
        "meta_object_name": "FENGYUN 1C DEB",
        "meta_object_id": "1999-025BT",
        "meta_epoch": "2025-12-25T18:21:02.534688",
        "meta_mean_motion": 13.92109931,
        "meta_eccentricity": 0.0093244,
        "meta_inclination": 99.2817,
        "meta_ra_of_asc_node": 56.6425,
        "meta_arg_of_pericenter": 174.5216,
        "meta_mean_anomaly": 304.4022,
        "meta_ephemeris_type": 0,
        "meta_classification_type": "U",
        "meta_norad_cat_id": 29777,
        "meta_element_set_no": 999,
        "meta_rev_at_epoch": 96222,
        "meta_bstar": 0.00022624269,
        "meta_mean_motion_dot": 2.55e-06,
        "meta_mean_motion_ddot": 0,
        "tle_line1": "1 29777U 99025BT  25359.76461267  .00000255  00000+0  22624-3 0  9990",
        "tle_line2": "2 29777  99.2817  56.6425 0093244 174.5216 304.4022 13.92109931962220"
      },
      "geometry": {
        "type": "Point",
        "coordinates": [
          60.379867929196195,
          -18.789817776616232
        ]
      }
    },
    {
      "type": "Feature",
      "properties": {
        "norad_id": 29779,
        "name": "FENGYUN 1C DEB",
        "group": "fengyun-1c-debris",
        "lat": -78.31253454771634,
        "lon": 143.56311475143337,
        "alt_km": 888.2161088967223,
        "timestamp": "2025-12-26T07:29:18.726837+00:00",
        "meta_object_name": "FENGYUN 1C DEB",
        "meta_object_id": "1999-025BV",
        "meta_epoch": "2025-12-25T13:16:04.738368",
        "meta_mean_motion": 14.1345393,
        "meta_eccentricity": 0.0064012,
        "meta_inclination": 98.6769,
        "meta_ra_of_asc_node": 10.4051,
        "meta_arg_of_pericenter": 127.958,
        "meta_mean_anomaly": 232.74,
        "meta_ephemeris_type": 0,
        "meta_classification_type": "U",
        "meta_norad_cat_id": 29779,
        "meta_element_set_no": 999,
        "meta_rev_at_epoch": 97593,
        "meta_bstar": 0.00022418,
        "meta_mean_motion_dot": 3.88e-06,
        "meta_mean_motion_ddot": 0,
        "tle_line1": "1 29779U 99025BV  25359.55283262  .00000388  00000+0  22418-3 0  9994",
        "tle_line2": "2 29779  98.6769  10.4051 0064012 127.9580 232.7400 14.13453930975931"
      },
      "geometry": {
        "type": "Point",
        "coordinates": [
          143.56311475143337,
          -78.31253454771634
        ]
      }
    }
  ]
}